{"type":"FeatureCollection","features":[{"type":"Feature","properties":{"code":"AR","name":"Arunachal Pradesh"},"geometry":{"type":"Polygon","coordinates":[[[96.158,29.383],[96.186,29.344],[96.183,29.309],[96.244,29.235],[96.293,29.236],[96.363,29.286],[96.393,29.257],[96.346,29.171],[96.26,29.16],[96.186,29.095],[96.115,29.078],[96.15,29.053],[96.185,28.988],[96.145,28.937],[96.167,28.906],[96.248,28.943],[96.347,29.032],[96.436,29.038],[96.525,29.079],[96.477,28.994],[96.488,28.965],[96.519,28.971],[96.537,28.884],[96.616,28.779],[96.586,28.722],[96.473,28.688],[96.494,28.638],[96.428,28.587],[96.401,28.594],[96.407,28.564],[96.355,28.561],[96.326,28.534],[96.373,28.487],[96.264,28.413],[96.32,28.386],[96.371,28.394],[96.399,28.344],[96.423,28.351],[96.458,28.419],[96.51,28.418],[96.58,28.463],[96.665,28.466],[96.751,28.422],[96.774,28.374],[96.852,28.368],[96.899,28.386],[96.926,28.345],[96.996,28.316],[97.093,28.37],[97.152,28.334],[97.174,28.299],[97.282,28.276],[97.401,28.201],[97.364,28.196],[97.331,28.163],[97.339,28.12],[97.308,28.077],[97.374,28.07],[97.377,28.039],[97.415,28.024],[97.378,27.986],[97.389,27.896],[97.321,27.89],[97.309,27.93],[97.256,27.91],[97.102,27.793],[97.096,27.75],[97.029,27.749],[96.978,27.672],[96.942,27.667],[96.898,27.621],[96.938,27.53],[96.912,27.463],[96.966,27.415],[97.003,27.33],[97.167,27.155],[97.146,27.103],[97.109,27.121],[97.063,27.111],[96.985,27.167],[96.866,27.2],[96.889,27.264],[96.862,27.273],[96.802,27.354],[96.713,27.381],[96.699,27.366],[96.62,27.373],[96.522,27.294],[96.471,27.312],[96.348,27.288],[96.311,27.302],[96.099,27.231],[96.036,27.196],[95.946,27.06],[95.877,27.02],[95.808,27.02],[95.761,26.964],[95.758,26.915],[95.731,26.887],[95.673,26.91],[95.637,26.879],[95.612,26.821],[95.533,26.831],[95.423,26.697],[95.303,26.656],[95.238,26.686],[95.216,26.735],[95.245,26.787],[95.215,26.798],[95.209,26.851],[95.185,26.865],[95.234,26.891],[95.195,26.99],[95.196,27.043],[95.248,27.03],[95.349,27.105],[95.458,27.136],[95.46,27.213],[95.516,27.269],[95.59,27.23],[95.806,27.292],[95.86,27.294],[95.894,27.263],[95.906,27.292],[96.021,27.371],[95.978,27.435],[95.968,27.424],[95.95,27.445],[95.917,27.443],[95.893,27.406],[95.889,27.444],[95.867,27.417],[95.849,27.43],[95.89,27.506],[95.881,27.553],[95.84,27.567],[95.824,27.603],[95.787,27.623],[95.801,27.649],[95.778,27.672],[95.796,27.688],[95.758,27.731],[95.788,27.742],[95.781,27.758],[95.823,27.809],[95.927,27.887],[95.977,27.969],[95.826,27.977],[95.607,27.958],[95.516,27.882],[95.384,27.842],[95.317,27.871],[95.031,27.775],[94.861,27.739],[94.839,27.704],[94.795,27.698],[94.756,27.667],[94.689,27.667],[94.683,27.65],[94.46,27.558],[94.431,27.603],[94.367,27.577],[94.298,27.604],[94.276,27.593],[94.252,27.641],[94.211,27.611],[94.257,27.557],[94.26,27.523],[94.157,27.478],[94.061,27.364],[94.0,27.335],[93.809,27.152],[93.798,27.136],[93.825,27.119],[93.835,27.075],[93.772,27.062],[93.676,26.971],[93.489,26.939],[93.348,26.963],[93.019,26.917],[92.918,26.964],[92.917,26.985],[92.872,27.008],[92.659,27.039],[92.639,27.019],[92.645,26.987],[92.585,26.962],[92.46,26.963],[92.4,26.926],[92.353,26.936],[92.276,26.902],[92.108,26.894],[92.117,26.96],[92.103,27.008],[92.034,27.065],[92.023,27.162],[92.07,27.224],[92.04,27.267],[92.102,27.269],[92.121,27.288],[92.059,27.327],[92.054,27.4],[92.019,27.448],[92.019,27.48],[91.949,27.461],[91.849,27.483],[91.774,27.465],[91.72,27.47],[91.69,27.503],[91.653,27.483],[91.562,27.584],[91.576,27.608],[91.558,27.633],[91.624,27.706],[91.64,27.758],[91.628,27.801],[91.599,27.821],[91.565,27.815],[91.553,27.859],[91.669,27.857],[91.694,27.822],[91.746,27.803],[91.824,27.81],[91.861,27.737],[91.919,27.715],[91.984,27.77],[92.055,27.759],[92.21,27.859],[92.264,27.858],[92.316,27.778],[92.38,27.795],[92.383,27.816],[92.407,27.822],[92.455,27.803],[92.501,27.842],[92.561,27.821],[92.605,27.878],[92.669,27.9],[92.739,27.989],[92.695,28.048],[92.663,28.063],[92.687,28.126],[92.8,28.202],[92.826,28.172],[92.895,28.205],[92.913,28.235],[92.965,28.262],[93.0,28.231],[93.034,28.263],[93.024,28.303],[93.219,28.334],[93.232,28.401],[93.183,28.44],[93.276,28.505],[93.305,28.566],[93.3,28.6],[93.328,28.608],[93.337,28.64],[93.446,28.676],[93.474,28.654],[93.491,28.684],[93.534,28.659],[93.62,28.658],[93.732,28.689],[93.775,28.669],[93.844,28.707],[93.926,28.672],[93.969,28.751],[94.001,28.776],[93.985,28.798],[93.995,28.841],[94.155,28.955],[94.215,29.084],[94.288,29.148],[94.357,29.153],[94.372,29.19],[94.431,29.227],[94.558,29.229],[94.628,29.349],[94.711,29.304],[94.777,29.241],[94.798,29.165],[94.872,29.184],[95.023,29.131],[94.997,29.173],[95.098,29.144],[95.122,29.116],[95.251,29.11],[95.25,29.069],[95.267,29.058],[95.41,29.034],[95.454,29.037],[95.483,29.071],[95.496,29.14],[95.547,29.129],[95.538,29.214],[95.586,29.218],[95.599,29.262],[95.638,29.25],[95.727,29.302],[95.778,29.356],[95.796,29.336],[95.881,29.391],[95.957,29.383],[96.081,29.463],[96.158,29.383]]]}},{"type":"Feature","properties":{"code":"AS","name":"Assam"},"geometry":{"type":"MultiPolygon","coordinates":[[[[89.871,25.537],[89.88,25.489],[89.86,25.473],[89.858,25.535],[89.871,25.537]]],[[[95.952,27.942],[95.927,27.887],[95.823,27.809],[95.781,27.758],[95.788,27.742],[95.759,27.727],[95.796,27.688],[95.778,27.666],[95.801,27.649],[95.785,27.627],[95.798,27.608],[95.881,27.553],[95.89,27.506],[95.849,27.43],[95.867,27.417],[95.889,27.444],[95.893,27.406],[95.917,27.443],[95.95,27.445],[95.968,27.424],[95.978,27.435],[96.018,27.368],[95.906,27.292],[95.894,27.263],[95.86,27.294],[95.806,27.292],[95.59,27.23],[95.535,27.271],[95.511,27.266],[95.46,27.213],[95.458,27.136],[95.349,27.105],[95.248,27.03],[95.198,27.044],[95.11,26.967],[95.021,26.925],[94.986,26.918],[94.928,26.952],[94.894,26.937],[94.821,26.854],[94.802,26.806],[94.756,26.772],[94.746,26.782],[94.653,26.724],[94.623,26.72],[94.604,26.739],[94.575,26.691],[94.545,26.711],[94.468,26.67],[94.463,26.635],[94.408,26.614],[94.399,26.532],[94.351,26.509],[94.317,26.463],[94.294,26.481],[94.29,26.564],[94.277,26.559],[94.187,26.461],[94.164,26.36],[94.176,26.344],[94.108,26.326],[94.005,26.173],[93.991,26.073],[93.955,26.007],[93.979,25.92],[93.916,25.888],[93.883,25.846],[93.842,25.863],[93.796,25.814],[93.78,25.846],[93.798,25.91],[93.773,25.966],[93.752,25.936],[93.688,25.909],[93.705,25.849],[93.641,25.818],[93.606,25.767],[93.573,25.761],[93.5,25.657],[93.428,25.631],[93.407,25.596],[93.332,25.547],[93.396,25.464],[93.462,25.435],[93.478,25.38],[93.452,25.344],[93.474,25.309],[93.389,25.246],[93.353,25.182],[93.336,25.096],[93.305,25.048],[93.268,25.05],[93.249,25.019],[93.262,24.951],[93.24,24.939],[93.253,24.919],[93.229,24.877],[93.197,24.856],[93.197,24.811],[93.153,24.79],[93.123,24.82],[93.11,24.81],[93.107,24.742],[93.076,24.71],[93.105,24.675],[93.075,24.596],[93.107,24.584],[93.061,24.575],[93.073,24.561],[93.036,24.497],[93.039,24.411],[92.936,24.396],[92.912,24.413],[92.905,24.394],[92.863,24.399],[92.829,24.378],[92.765,24.521],[92.691,24.355],[92.624,24.333],[92.612,24.253],[92.551,24.246],[92.53,24.175],[92.486,24.162],[92.467,24.135],[92.437,24.151],[92.419,24.194],[92.422,24.253],[92.213,24.249],[92.272,24.378],[92.257,24.436],[92.231,24.46],[92.234,24.562],[92.259,24.681],[92.298,24.737],[92.28,24.828],[92.244,24.849],[92.241,24.899],[92.298,24.92],[92.391,24.85],[92.432,24.852],[92.449,24.877],[92.492,24.874],[92.505,24.904],[92.489,24.954],[92.456,24.946],[92.471,24.964],[92.435,24.966],[92.424,24.996],[92.426,25.032],[92.463,25.037],[92.484,25.108],[92.543,25.1],[92.525,25.14],[92.625,25.119],[92.667,25.177],[92.804,25.219],[92.765,25.249],[92.792,25.285],[92.784,25.333],[92.761,25.335],[92.737,25.381],[92.718,25.375],[92.674,25.417],[92.66,25.41],[92.654,25.435],[92.609,25.417],[92.598,25.472],[92.567,25.467],[92.645,25.537],[92.653,25.592],[92.603,25.557],[92.573,25.56],[92.558,25.612],[92.502,25.623],[92.465,25.682],[92.432,25.691],[92.433,25.731],[92.385,25.754],[92.334,25.725],[92.229,25.716],[92.161,25.672],[92.153,25.813],[92.18,25.87],[92.225,25.907],[92.164,25.912],[92.156,25.945],[92.297,26.079],[92.241,26.063],[92.178,26.08],[92.133,26.046],[92.053,26.033],[91.991,26.041],[91.922,26.0],[91.87,26.052],[91.876,26.098],[91.819,26.119],[91.731,26.059],[91.72,25.954],[91.669,25.905],[91.611,25.94],[91.638,25.965],[91.632,26.022],[91.576,26.033],[91.502,25.921],[91.531,25.924],[91.475,25.871],[91.508,25.867],[91.53,25.89],[91.525,25.873],[91.444,25.841],[91.419,25.855],[91.334,25.839],[91.276,25.747],[91.224,25.723],[91.192,25.73],[91.18,25.776],[91.196,25.859],[91.063,25.82],[91.05,25.829],[91.079,25.853],[91.049,25.849],[91.001,25.822],[91.029,25.888],[90.967,25.887],[90.943,25.948],[90.916,25.943],[90.919,25.913],[90.883,25.952],[90.837,25.938],[90.81,25.952],[90.778,25.908],[90.741,25.915],[90.747,25.957],[90.686,25.951],[90.627,25.917],[90.625,25.899],[90.607,25.912],[90.629,25.937],[90.582,25.96],[90.513,25.896],[90.534,25.958],[90.477,26.015],[90.429,25.989],[90.396,26.014],[90.365,26.01],[90.324,25.974],[90.183,25.944],[90.153,25.965],[90.119,25.961],[90.042,25.891],[90.005,25.879],[90.022,25.866],[90.008,25.847],[89.945,25.824],[89.955,25.774],[89.934,25.745],[89.893,25.735],[89.947,25.659],[90.017,25.602],[89.87,25.544],[89.885,25.63],[89.856,25.707],[89.832,25.725],[89.844,25.768],[89.815,25.817],[89.89,25.94],[89.828,25.944],[89.875,25.976],[89.84,26.01],[89.84,25.981],[89.823,25.985],[89.813,26.042],[89.792,26.018],[89.805,26.038],[89.778,26.036],[89.804,26.059],[89.789,26.103],[89.759,26.109],[89.771,26.127],[89.748,26.158],[89.723,26.155],[89.734,26.175],[89.695,26.189],[89.732,26.212],[89.697,26.217],[89.729,26.238],[89.705,26.27],[89.725,26.258],[89.737,26.271],[89.718,26.306],[89.759,26.289],[89.751,26.321],[89.781,26.331],[89.782,26.353],[89.82,26.371],[89.82,26.35],[89.826,26.379],[89.857,26.384],[89.847,26.403],[89.827,26.396],[89.869,26.448],[89.853,26.488],[89.862,26.578],[89.878,26.584],[89.877,26.613],[89.857,26.623],[89.876,26.649],[89.862,26.737],[89.958,26.723],[90.128,26.749],[90.189,26.771],[90.184,26.81],[90.215,26.854],[90.302,26.848],[90.355,26.896],[90.41,26.902],[90.56,26.801],[90.7,26.768],[91.054,26.779],[91.097,26.82],[91.262,26.805],[91.336,26.78],[91.408,26.836],[91.493,26.79],[91.624,26.821],[91.687,26.805],[91.802,26.852],[91.858,26.914],[91.897,26.916],[91.986,26.858],[92.055,26.848],[92.089,26.861],[92.108,26.894],[92.276,26.902],[92.353,26.936],[92.4,26.926],[92.46,26.963],[92.585,26.962],[92.645,26.987],[92.639,27.019],[92.659,27.039],[92.872,27.008],[92.917,26.985],[92.918,26.964],[93.019,26.917],[93.348,26.963],[93.489,26.939],[93.655,26.966],[93.768,27.043],[93.772,27.062],[93.835,27.075],[93.825,27.119],[93.798,27.136],[93.809,27.152],[94.0,27.335],[94.061,27.364],[94.157,27.478],[94.259,27.523],[94.257,27.557],[94.211,27.611],[94.252,27.641],[94.276,27.593],[94.298,27.604],[94.367,27.577],[94.431,27.603],[94.46,27.558],[94.683,27.65],[94.689,27.667],[94.756,27.667],[94.795,27.698],[94.839,27.704],[94.861,27.739],[95.031,27.775],[95.317,27.871],[95.384,27.842],[95.516,27.882],[95.607,27.958],[95.826,27.977],[95.977,27.969],[95.952,27.942]]]]}},{"type":"Feature","properties":{"code":"MN","name":"Manipur"},"geometry":{"type":"Polygon","coordinates":[[[94.577,25.648],[94.595,25.644],[94.556,25.586],[94.557,25.513],[94.633,25.466],[94.682,25.46],[94.674,25.416],[94.631,25.387],[94.585,25.216],[94.746,25.137],[94.742,25.025],[94.703,24.978],[94.719,24.942],[94.638,24.842],[94.633,24.765],[94.611,24.722],[94.551,24.717],[94.531,24.632],[94.465,24.576],[94.43,24.493],[94.403,24.488],[94.404,24.421],[94.365,24.4],[94.383,24.379],[94.352,24.342],[94.326,24.339],[94.328,24.292],[94.284,24.18],[94.263,24.168],[94.26,24.09],[94.247,24.063],[94.233,24.067],[94.245,24.044],[94.194,23.965],[94.196,23.938],[94.171,23.935],[94.161,23.853],[94.123,23.843],[94.096,23.894],[93.954,23.95],[93.907,23.957],[93.816,23.93],[93.757,24.009],[93.621,24.014],[93.603,23.97],[93.564,23.99],[93.555,23.965],[93.509,23.949],[93.469,23.974],[93.425,24.072],[93.351,24.112],[93.337,24.053],[93.288,24.052],[93.255,24.024],[93.267,24.06],[93.248,24.085],[93.224,24.084],[93.217,24.05],[93.17,24.055],[93.17,24.075],[93.142,24.087],[93.101,24.045],[93.079,24.103],[93.054,24.091],[92.976,24.115],[93.022,24.21],[93.008,24.28],[93.043,24.343],[93.022,24.347],[93.024,24.39],[93.0,24.403],[93.039,24.411],[93.036,24.497],[93.073,24.561],[93.061,24.575],[93.107,24.584],[93.075,24.596],[93.105,24.675],[93.076,24.71],[93.107,24.742],[93.11,24.81],[93.123,24.82],[93.153,24.79],[93.197,24.811],[93.197,24.856],[93.229,24.877],[93.253,24.919],[93.24,24.939],[93.262,24.951],[93.249,25.019],[93.268,25.05],[93.305,25.048],[93.336,25.096],[93.353,25.182],[93.404,25.263],[93.474,25.309],[93.477,25.279],[93.511,25.276],[93.505,25.244],[93.555,25.251],[93.608,25.202],[93.693,25.362],[93.718,25.362],[93.809,25.466],[93.804,25.499],[93.766,25.5],[93.771,25.54],[93.82,25.544],[93.836,25.563],[93.965,25.557],[94.01,25.571],[94.015,25.596],[94.086,25.56],[94.092,25.533],[94.139,25.524],[94.16,25.555],[94.195,25.552],[94.215,25.5],[94.287,25.512],[94.309,25.494],[94.42,25.543],[94.43,25.593],[94.474,25.622],[94.505,25.617],[94.573,25.698],[94.597,25.687],[94.577,25.648]]]}},{"type":"Feature","properties":{"code":"ML","name":"Meghalaya"},"geometry":{"type":"Polygon","coordinates":[[[91.854,26.105],[91.876,26.098],[91.883,26.03],[91.917,26.021],[91.922,26.0],[91.991,26.041],[92.133,26.046],[92.178,26.08],[92.241,26.063],[92.302,26.076],[92.156,25.945],[92.164,25.912],[92.225,25.907],[92.18,25.87],[92.153,25.813],[92.161,25.672],[92.229,25.716],[92.334,25.725],[92.385,25.754],[92.433,25.731],[92.432,25.691],[92.465,25.682],[92.502,25.623],[92.558,25.612],[92.573,25.56],[92.603,25.557],[92.653,25.592],[92.645,25.537],[92.567,25.467],[92.598,25.472],[92.609,25.417],[92.654,25.435],[92.66,25.41],[92.674,25.417],[92.718,25.375],[92.737,25.381],[92.761,25.335],[92.784,25.333],[92.792,25.285],[92.765,25.249],[92.804,25.217],[92.667,25.177],[92.622,25.118],[92.525,25.14],[92.543,25.1],[92.484,25.108],[92.463,25.037],[92.426,25.032],[92.347,25.052],[92.348,25.078],[92.234,25.097],[92.212,25.116],[92.232,25.12],[92.188,25.122],[92.072,25.19],[91.782,25.168],[91.753,25.18],[91.744,25.151],[91.707,25.159],[91.645,25.123],[91.606,25.146],[91.617,25.176],[91.474,25.134],[91.42,25.17],[91.342,25.172],[91.274,25.204],[91.082,25.197],[90.867,25.156],[90.785,25.184],[90.739,25.154],[90.673,25.167],[90.671,25.197],[90.649,25.173],[90.517,25.175],[90.452,25.145],[90.342,25.194],[90.115,25.227],[89.971,25.303],[89.834,25.296],[89.847,25.31],[89.822,25.385],[89.855,25.476],[89.88,25.489],[89.87,25.544],[89.966,25.572],[89.979,25.591],[90.002,25.584],[90.018,25.608],[89.947,25.659],[89.895,25.744],[89.934,25.745],[89.955,25.774],[89.945,25.824],[90.008,25.847],[90.022,25.866],[90.005,25.879],[90.042,25.891],[90.119,25.961],[90.153,25.965],[90.183,25.944],[90.324,25.974],[90.365,26.01],[90.396,26.014],[90.429,25.989],[90.477,26.015],[90.534,25.958],[90.513,25.896],[90.582,25.96],[90.629,25.937],[90.607,25.912],[90.625,25.899],[90.627,25.917],[90.686,25.951],[90.747,25.957],[90.741,25.915],[90.778,25.908],[90.81,25.952],[90.837,25.938],[90.883,25.952],[90.919,25.913],[90.916,25.943],[90.943,25.948],[90.967,25.887],[91.029,25.888],[91.001,25.822],[91.049,25.849],[91.079,25.853],[91.05,25.829],[91.063,25.82],[91.196,25.859],[91.18,25.776],[91.192,25.73],[91.224,25.723],[91.276,25.747],[91.334,25.839],[91.419,25.855],[91.444,25.841],[91.525,25.873],[91.53,25.89],[91.508,25.867],[91.475,25.871],[91.531,25.924],[91.502,25.921],[91.576,26.033],[91.632,26.022],[91.638,25.965],[91.611,25.94],[91.669,25.905],[91.72,25.954],[91.731,26.059],[91.819,26.119],[91.854,26.105]]]}},{"type":"Feature","properties":{"code":"MZ","name":"Mizoram"},"geometry":{"type":"Polygon","coordinates":[[[92.801,24.419],[92.831,24.401],[92.833,24.376],[92.863,24.399],[92.905,24.394],[92.912,24.413],[92.936,24.396],[92.98,24.41],[93.024,24.39],[93.022,24.347],[93.043,24.343],[93.007,24.254],[93.027,24.233],[92.976,24.115],[93.054,24.091],[93.079,24.103],[93.101,24.045],[93.148,24.088],[93.17,24.055],[93.217,24.05],[93.224,24.084],[93.248,24.085],[93.267,24.06],[93.255,24.024],[93.288,24.052],[93.337,24.053],[93.334,23.987],[93.399,23.93],[93.405,23.762],[93.445,23.682],[93.397,23.433],[93.414,23.388],[93.366,23.354],[93.395,23.224],[93.374,23.15],[93.394,23.139],[93.298,23.006],[93.253,23.006],[93.194,23.06],[93.133,23.048],[93.129,23.001],[93.168,22.919],[93.139,22.913],[93.116,22.816],[93.099,22.81],[93.113,22.744],[93.092,22.709],[93.144,22.599],[93.112,22.532],[93.134,22.52],[93.142,22.463],[93.191,22.427],[93.209,22.261],[93.147,22.247],[93.17,22.2],[93.154,22.178],[93.077,22.21],[93.047,22.198],[93.066,22.102],[93.013,22.102],[93.009,21.984],[92.988,21.983],[92.956,22.03],[92.932,22.018],[92.911,21.946],[92.868,22.065],[92.845,22.063],[92.718,22.153],[92.699,22.148],[92.694,22.077],[92.684,22.105],[92.684,22.018],[92.61,21.977],[92.605,22.058],[92.57,22.129],[92.588,22.14],[92.61,22.121],[92.614,22.173],[92.553,22.521],[92.531,22.562],[92.527,22.676],[92.511,22.737],[92.485,22.75],[92.458,22.821],[92.448,22.894],[92.433,22.887],[92.421,22.92],[92.375,22.935],[92.394,23.058],[92.366,23.106],[92.361,23.238],[92.409,23.246],[92.373,23.323],[92.38,23.362],[92.323,23.474],[92.3,23.625],[92.281,23.63],[92.295,23.693],[92.269,23.729],[92.259,23.815],[92.287,23.817],[92.275,23.849],[92.292,23.871],[92.32,23.866],[92.331,23.912],[92.311,23.961],[92.329,23.99],[92.314,24.035],[92.337,24.147],[92.297,24.252],[92.422,24.253],[92.419,24.194],[92.437,24.152],[92.466,24.135],[92.486,24.162],[92.53,24.175],[92.551,24.246],[92.612,24.253],[92.624,24.333],[92.691,24.355],[92.765,24.521],[92.801,24.419]]]}},{"type":"Feature","properties":{"code":"NL","name":"Nagaland"},"geometry":{"type":"Polygon","coordinates":[[[95.214,26.937],[95.234,26.891],[95.185,26.865],[95.209,26.851],[95.215,26.798],[95.245,26.787],[95.216,26.735],[95.238,26.686],[95.155,26.619],[95.154,26.581],[95.115,26.548],[95.121,26.53],[95.066,26.457],[95.106,26.43],[95.105,26.401],[95.136,26.388],[95.121,26.239],[95.143,26.214],[95.118,26.169],[95.121,26.11],[95.186,26.08],[95.106,25.968],[95.037,25.935],[95.022,25.91],[95.015,25.872],[95.052,25.805],[95.053,25.763],[94.938,25.669],[94.92,25.611],[94.889,25.593],[94.905,25.567],[94.849,25.561],[94.812,25.495],[94.67,25.455],[94.633,25.466],[94.557,25.513],[94.556,25.586],[94.595,25.644],[94.576,25.645],[94.596,25.691],[94.573,25.698],[94.505,25.617],[94.474,25.622],[94.43,25.593],[94.42,25.543],[94.314,25.494],[94.287,25.512],[94.215,25.5],[94.195,25.552],[94.16,25.555],[94.139,25.524],[94.092,25.533],[94.086,25.56],[94.015,25.596],[94.01,25.571],[93.965,25.557],[93.836,25.563],[93.82,25.544],[93.771,25.54],[93.766,25.5],[93.804,25.499],[93.809,25.466],[93.718,25.362],[93.693,25.362],[93.613,25.206],[93.593,25.204],[93.555,25.251],[93.505,25.244],[93.511,25.276],[93.477,25.279],[93.452,25.344],[93.478,25.38],[93.462,25.435],[93.396,25.464],[93.332,25.547],[93.407,25.596],[93.428,25.631],[93.5,25.657],[93.573,25.761],[93.606,25.767],[93.641,25.818],[93.705,25.849],[93.688,25.909],[93.752,25.936],[93.773,25.966],[93.798,25.91],[93.78,25.846],[93.796,25.814],[93.842,25.863],[93.883,25.846],[93.916,25.888],[93.979,25.92],[93.955,26.007],[93.991,26.073],[94.005,26.173],[94.108,26.326],[94.176,26.344],[94.164,26.36],[94.187,26.461],[94.277,26.559],[94.29,26.564],[94.294,26.481],[94.317,26.463],[94.351,26.509],[94.399,26.532],[94.408,26.614],[94.463,26.635],[94.465,26.668],[94.545,26.711],[94.575,26.691],[94.604,26.739],[94.623,26.72],[94.653,26.724],[94.746,26.782],[94.756,26.772],[94.802,26.806],[94.87,26.915],[94.924,26.95],[94.986,26.918],[95.021,26.925],[95.11,26.967],[95.196,27.043],[95.214,26.937]]]}},{"type":"Feature","properties":{"code":"TR","name":"Tripura"},"geometry":{"type":"Polygon","coordinates":[[[92.185,24.523],[92.234,24.5],[92.231,24.46],[92.273,24.388],[92.213,24.249],[92.297,24.252],[92.329,24.191],[92.314,24.035],[92.329,23.99],[92.311,23.961],[92.331,23.921],[92.322,23.87],[92.292,23.871],[92.275,23.849],[92.287,23.817],[92.259,23.815],[92.269,23.729],[92.247,23.724],[92.224,23.657],[92.179,23.743],[92.073,23.645],[92.023,23.658],[91.984,23.73],[91.962,23.728],[91.942,23.682],[91.975,23.482],[91.942,23.469],[91.942,23.438],[91.904,23.441],[91.847,23.4],[91.771,23.264],[91.836,23.094],[91.815,23.07],[91.78,23.069],[91.785,23.032],[91.773,23.044],[91.726,22.989],[91.698,23.003],[91.688,22.988],[91.652,22.992],[91.619,22.944],[91.612,22.973],[91.583,22.963],[91.549,22.995],[91.554,23.034],[91.536,23.039],[91.535,23.087],[91.509,23.127],[91.522,23.139],[91.497,23.153],[91.511,23.182],[91.474,23.189],[91.486,23.212],[91.459,23.215],[91.475,23.226],[91.452,23.243],[91.46,23.255],[91.424,23.255],[91.419,23.28],[91.389,23.179],[91.422,23.059],[91.378,23.064],[91.356,23.095],[91.33,23.158],[91.332,23.253],[91.306,23.291],[91.322,23.302],[91.297,23.321],[91.326,23.362],[91.297,23.354],[91.254,23.49],[91.207,23.518],[91.218,23.548],[91.199,23.548],[91.167,23.599],[91.161,23.671],[91.199,23.647],[91.21,23.688],[91.158,23.691],[91.16,23.739],[91.196,23.753],[91.225,23.74],[91.258,23.84],[91.233,23.883],[91.249,23.913],[91.235,23.929],[91.276,23.926],[91.266,23.949],[91.284,23.983],[91.3,23.973],[91.306,23.999],[91.378,23.977],[91.397,24.051],[91.375,24.108],[91.596,24.08],[91.597,24.096],[91.64,24.108],[91.66,24.188],[91.648,24.214],[91.668,24.23],[91.692,24.159],[91.761,24.142],[91.743,24.247],[91.816,24.209],[91.847,24.228],[91.842,24.198],[91.903,24.138],[91.942,24.268],[91.92,24.336],[91.957,24.356],[91.995,24.321],[91.974,24.389],[91.986,24.376],[92.0,24.392],[92.045,24.376],[92.119,24.384],[92.139,24.424],[92.173,24.431],[92.152,24.5],[92.156,24.524],[92.185,24.523]]]}}]}